STARLINK-2022           
1 47643U 21012Z   24096.87328140  .00003603  00000+0  26058-3 0  9999
2 47643  53.0537 326.6832 0001294  99.6582 260.4554 15.06405774174337
